{"type": "FeatureCollection", "features": [ {"type": "Feature", "properties": {"norad_id": 66503, "name": "STARLINK-35917", "group": "last-30-days", "lat": 18.4830223340616, "lon": 163.35278511387176, "alt_km": 412.54856713556455, "timestamp": "2025-12-09T18:55:16.022006+00:00", "meta": {"OBJECT_NAME": "STARLINK-35917", "OBJECT_ID": "2025-263U", "EPOCH": "2025-12-09T14:00:01.999872", "MEAN_MOTION": 15.50589047, "ECCENTRICITY": 0.00014441, "INCLINATION": 43.0005, "RA_OF_ASC_NODE": 143.5315, "ARG_OF_PERICENTER": 273.2768, "MEAN_ANOMALY": 48.6663, "EPHEMERIS_TYPE": 0, "CLASSIFICATION_TYPE": "U", "NORAD_CAT_ID": 66503, "ELEMENT_SET_NO": 999, "REV_AT_EPOCH": 512, "BSTAR": -0.001175575, "MEAN_MOTION_DOT": -0.00068729, "MEAN_MOTION_DDOT": 0}, "tle": {"line1": "1 66503U 25263U   25343.58335648 -.00068729  00000+0 -11756-2 0  9992", "line2": "2 66503  43.0005 143.5315 0001444 273.2768  48.6663 15.50589047  5129"}}, "geometry": {"type": "Point", "coordinates": [163.35278511387176, 18.4830223340616]}}, {"type": "Feature", "properties": {"norad_id": 66504, "name": "STARLINK-35916", "group": "last-30-days", "lat": -23.0153848816674, "lon": -9.241121693557018, "alt_km": 445.7098338024243, "timestamp": "2025-12-09T18:55:16.022017+00:00", "meta": {"OBJECT_NAME": "STARLINK-35916", "OBJECT_ID": "2025-263V", "EPOCH": "2025-12-09T14:00:01.999872", "MEAN_MOTION": 15.4065991, "ECCENTRICITY": 0.00015077, "INCLINATION": 43.0004, "RA_OF_ASC_NODE": 144.8209, "ARG_OF_PERICENTER": 265.9969, "MEAN_ANOMALY": 250.4461, "EPHEMERIS_TYPE": 0, "CLASSIFICATION_TYPE": "U", "NORAD_CAT_ID": 66504, "ELEMENT_SET_NO": 999, "REV_AT_EPOCH": 512, "BSTAR": 0.00061392937, "MEAN_MOTION_DOT": 0.00025393, "MEAN_MOTION_DDOT": 0}, "tle": {"line1": "1 66504U 25263V   25343.58335648  .00025393  00000+0  61393-3 0  9994", "line2": "2 66504  43.0004 144.8209 0001507 265.9969 250.4461 15.40659910  5121"}}, "geometry": {"type": "Point", "coordinates": [-9.241121693557018, -23.0153848816674]}}, {"type": "Feature", "properties": {"norad_id": 66505, "name": "STARLINK-34766", "group": "last-30-days", "lat": 13.504423724448554, "lon": 157.28565991232156, "alt_km": 413.2071687508478, "timestamp": "2025-12-09T18:55:16.022027+00:00", "meta": {"OBJECT_NAME": "STARLINK-34766", "OBJECT_ID": "2025-263W", "EPOCH": "2025-12-09T14:00:01.999872", "MEAN_MOTION": 15.50567242, "ECCENTRICITY": 0.00015527, "INCLINATION": 43.0005, "RA_OF_ASC_NODE": 143.5503, "ARG_OF_PERICENTER": 273.5222, "MEAN_ANOMALY": 40.7513, "EPHEMERIS_TYPE": 0, "CLASSIFICATION_TYPE": "U", "NORAD_CAT_ID": 66505, "ELEMENT_SET_NO": 999, "REV_AT_EPOCH": 512, "BSTAR": -0.00016363285, "MEAN_MOTION_DOT": -9.925e-05, "MEAN_MOTION_DDOT": 0}, "tle": {"line1": "1 66505U 25263W   25343.58335648 -.00009925  00000+0 -16363-3 0  9997", "line2": "2 66505  43.0005 143.5503 0001552 273.5222  40.7513 15.50567242  5128"}}, "geometry": {"type": "Point", "coordinates": [157.28565991232156, 13.504423724448554]}}, {"type": "Feature", "properties": {"norad_id": 66506, "name": "STARLINK-34765", "group": "last-30-days", "lat": 14.768370223748954, "lon": 158.77964784010376, "alt_km": 413.0367489277096, "timestamp": "2025-12-09T18:55:16.022037+00:00", "meta": {"OBJECT_NAME": "STARLINK-34765", "OBJECT_ID": "2025-263X", "EPOCH": "2025-12-09T14:00:01.999872", "MEAN_MOTION": 15.50582097, "ECCENTRICITY": 0.00013914, "INCLINATION": 43.0005, "RA_OF_ASC_NODE": 143.546, "ARG_OF_PERICENTER": 272.9846, "MEAN_ANOMALY": 43.2117, "EPHEMERIS_TYPE": 0, "CLASSIFICATION_TYPE": "U", "NORAD_CAT_ID": 66506, "ELEMENT_SET_NO": 999, "REV_AT_EPOCH": 512, "BSTAR": -0.00098957431, "MEAN_MOTION_DOT": -0.00057973, "MEAN_MOTION_DDOT": 0}, "tle": {"line1": "1 66506U 25263X   25343.58335648 -.00057973  00000+0 -98957-3 0  9993", "line2": "2 66506  43.0005 143.5460 0001391 272.9846  43.2117 15.50582097  5120"}}, "geometry": {"type": "Point", "coordinates": [158.77964784010376, 14.768370223748954]}}, {"type": "Feature", "properties": {"norad_id": 66507, "name": "STARLINK-34767", "group": "last-30-days", "lat": 17.255201862302307, "lon": 161.80559529220733, "alt_km": 412.85917207626153, "timestamp": "2025-12-09T18:55:16.022049+00:00", "meta": {"OBJECT_NAME": "STARLINK-34767", "OBJECT_ID": "2025-263Y", "EPOCH": "2025-12-09T14:00:01.999872", "MEAN_MOTION": 15.5059581, "ECCENTRICITY": 0.00013935, "INCLINATION": 43.0004, "RA_OF_ASC_NODE": 143.5347, "ARG_OF_PERICENTER": 262.3523, "MEAN_ANOMALY": 57.6717, "EPHEMERIS_TYPE": 0, "CLASSIFICATION_TYPE": "U", "NORAD_CAT_ID": 66507, "ELEMENT_SET_NO": 999, "REV_AT_EPOCH": 512, "BSTAR": -0.0014430456, "MEAN_MOTION_DOT": -0.00084144, "MEAN_MOTION_DDOT": 0}, "tle": {"line1": "1 66507U 25263Y   25343.58335648 -.00084144  00000+0 -14430-2 0  9997", "line2": "2 66507  43.0004 143.5347 0001393 262.3523  57.6717 15.50595810  5123"}}, "geometry": {"type": "Point", "coordinates": [161.80559529220733, 17.255201862302307]}}, {"type": "Feature", "properties": {"norad_id": 66508, "name": "STARLINK-35608", "group": "last-30-days", "lat": 20.897183371803624, "lon": 166.50964958118612, "alt_km": 412.1964326927282, "timestamp": "2025-12-09T18:55:16.022059+00:00", "meta": {"OBJECT_NAME": "STARLINK-35608", "OBJECT_ID": "2025-263Z", "EPOCH": "2025-12-09T14:00:01.999872", "MEAN_MOTION": 15.50583152, "ECCENTRICITY": 0.00014118, "INCLINATION": 43.0004, "RA_OF_ASC_NODE": 143.5216, "ARG_OF_PERICENTER": 274.6849, "MEAN_ANOMALY": 51.0944, "EPHEMERIS_TYPE": 0, "CLASSIFICATION_TYPE": "U", "NORAD_CAT_ID": 66508, "ELEMENT_SET_NO": 999, "REV_AT_EPOCH": 512, "BSTAR": -0.00096467903, "MEAN_MOTION_DOT": -0.00056536, "MEAN_MOTION_DDOT": 0}, "tle": {"line1": "1 66508U 25263Z   25343.58335648 -.00056536  00000+0 -96468-3 0  9994", "line2": "2 66508  43.0004 143.5216 0001411 274.6849  51.0944 15.50583152  5123"}}, "geometry": {"type": "Point", "coordinates": [166.50964958118612, 20.897183371803624]}}, {"type": "Feature", "properties": {"norad_id": 66509, "name": "STARLINK-35598", "group": "last-30-days", "lat": 25.53612314362583, "lon": 173.14381658912768, "alt_km": 411.691657293718, "timestamp": "2025-12-09T18:55:16.022069+00:00", "meta": {"OBJECT_NAME": "STARLINK-35598", "OBJECT_ID": "2025-263AA", "EPOCH": "2025-12-09T14:00:01.999872", "MEAN_MOTION": 15.5058363, "ECCENTRICITY": 0.00013481, "INCLINATION": 43.0005, "RA_OF_ASC_NODE": 143.5007, "ARG_OF_PERICENTER": 262.3221, "MEAN_ANOMALY": 71.1277, "EPHEMERIS_TYPE": 0, "CLASSIFICATION_TYPE": "U", "NORAD_CAT_ID": 66509, "ELEMENT_SET_NO": 999, "REV_AT_EPOCH": 512, "BSTAR": -0.00097674901, "MEAN_MOTION_DOT": -0.00057234, "MEAN_MOTION_DDOT": 0}, "tle": {"line1": "1 66509U 25263AA  25343.58335648 -.00057234  00000+0 -97675-3 0  9992", "line2": "2 66509  43.0005 143.5007 0001348 262.3221  71.1277 15.50583630  5123"}}, "geometry": {"type": "Point", "coordinates": [173.14381658912768, 25.53612314362583]}}, {"type": "Feature", "properties": {"norad_id": 66510, "name": "STARLINK-35600", "group": "last-30-days", "lat": 22.082256356431962, "lon": 168.1235451955507, "alt_km": 412.21641987469866, "timestamp": "2025-12-09T18:55:16.022081+00:00", "meta": {"OBJECT_NAME": "STARLINK-35600", "OBJECT_ID": "2025-263AB", "EPOCH": "2025-12-09T14:00:01.999872", "MEAN_MOTION": 15.50593726, "ECCENTRICITY": 0.00014014, "INCLINATION": 43.0004, "RA_OF_ASC_NODE": 143.5147, "ARG_OF_PERICENTER": 261.3359, "MEAN_ANOMALY": 66.3583, "EPHEMERIS_TYPE": 0, "CLASSIFICATION_TYPE": "U", "NORAD_CAT_ID": 66510, "ELEMENT_SET_NO": 999, "REV_AT_EPOCH": 512, "BSTAR": -0.0014077064, "MEAN_MOTION_DOT": -0.00082107, "MEAN_MOTION_DDOT": 0}, "tle": {"line1": "1 66510U 25263AB  25343.58335648 -.00082107  00000+0 -14077-2 0  9995", "line2": "2 66510  43.0004 143.5147 0001401 261.3359  66.3583 15.50593726  5123"}}, "geometry": {"type": "Point", "coordinates": [168.1235451955507, 22.082256356431962]}}, {"type": "Feature", "properties": {"norad_id": 66511, "name": "STARLINK-35444", "group": "last-30-days", "lat": 24.403375198683122, "lon": 171.44155755485306, "alt_km": 411.8227123795623, "timestamp": "2025-12-09T18:55:16.022091+00:00", "meta": {"OBJECT_NAME": "STARLINK-35444", "OBJECT_ID": "2025-263AC", "EPOCH": "2025-12-09T14:00:01.999872", "MEAN_MOTION": 15.50586444, "ECCENTRICITY": 0.00013923, "INCLINATION": 43.0006, "RA_OF_ASC_NODE": 143.5065, "ARG_OF_PERICENTER": 266.4547, "MEAN_ANOMALY": 65.076, "EPHEMERIS_TYPE": 0, "CLASSIFICATION_TYPE": "U", "NORAD_CAT_ID": 66511, "ELEMENT_SET_NO": 999, "REV_AT_EPOCH": 512, "BSTAR": -0.0011022574, "MEAN_MOTION_DOT": -0.00064492, "MEAN_MOTION_DDOT": 0}, "tle": {"line1": "1 66511U 25263AC  25343.58335648 -.00064492  00000+0 -11023-2 0  9991", "line2": "2 66511  43.0006 143.5065 0001392 266.4547  65.0760 15.50586444  5121"}}, "geometry": {"type": "Point", "coordinates": [171.44155755485306, 24.403375198683122]}}, {"type": "Feature", "properties": {"norad_id": 66512, "name": "STARLINK-35366", "group": "last-30-days", "lat": 26.64611258483528, "lon": 174.87563602273872, "alt_km": 411.51157832841363, "timestamp": "2025-12-09T18:55:16.022103+00:00", "meta": {"OBJECT_NAME": "STARLINK-35366", "OBJECT_ID": "2025-263AD", "EPOCH": "2025-12-09T14:00:01.999872", "MEAN_MOTION": 15.5057525, "ECCENTRICITY": 0.0001387, "INCLINATION": 43.0005, "RA_OF_ASC_NODE": 143.4964, "ARG_OF_PERICENTER": 266.2179, "MEAN_ANOMALY": 69.1468, "EPHEMERIS_TYPE": 0, "CLASSIFICATION_TYPE": "U", "NORAD_CAT_ID": 66512, "ELEMENT_SET_NO": 999, "REV_AT_EPOCH": 512, "BSTAR": -0.00068218616, "MEAN_MOTION_DOT": -0.00040152, "MEAN_MOTION_DDOT": 0}, "tle": {"line1": "1 66512U 25263AD  25343.58335648 -.00040152  00000+0 -68219-3 0  9999", "line2": "2 66512  43.0005 143.4964 0001387 266.2179  69.1468 15.50575250  5124"}}, "geometry": {"type": "Point", "coordinates": [174.87563602273872, 26.64611258483528]}}]}